*******************************************************************************
JPL/HORIZONS                247 Eukrate (A885 EB)          2023-Sep-04 11:05:14
Rec #:     247 (+COV) Soln.date: 2023-Aug-22_21:48:34   # obs: 3008 (1885-2023)
 
IAU76/J2000 helio. ecliptic osc. elements (au, days, deg., period=Julian yrs):
 
  EPOCH=  2457344.5 ! 2015-Nov-18.00 (TDB)         Residual RMS= .34111
   EC= .2424293626348207   QR= 2.07713901415567    TP= 2457249.9159786431
   OM= .1657037554517837   W=  54.86395078838591   IN= 24.99012246822394
   A= 2.741842029912791    MA= 20.5332740859841    ADIST= 3.406545045669911
   PER= 4.54017            N= .217090305           ANGMOM= .027634402
   DAN= 2.26472            DDN= 2.99915            L= 52.3384318
   B= 20.2113601           MOID= 1.16112006        TP= 2015-Aug-15.4159786431
 
Asteroid physical parameters (km, seconds, rotational period in hours):
   GM= n.a.                RAD= 65.4675            ROTPER= 12.093
   H= 8.24                 G= .150                 B-V= .691
                           ALBEDO= .064            STYP= Xc

ASTEROID comments: 
1: soln ref.= JPL#106, OCC=0
2: source=ORB
*******************************************************************************


*******************************************************************************
Ephemeris / API_USER Mon Sep  4 11:05:14 2023 Pasadena, USA      / Horizons
*******************************************************************************
Target body name: 247 Eukrate (A885 EB)           {source: JPL#106}
Center body name: Solar System Barycenter (0)     {source: DE441}
Center-site name: BODY CENTER
*******************************************************************************
Start time      : A.D. 2023-Aug-12 00:00:00.0000 TDB
Stop  time      : A.D. 2023-Aug-13 00:00:00.0000 TDB
Step-size       : 2880 minutes
*******************************************************************************
Center geodetic : 0.0, 0.0, 0.0                   {E-lon(deg),Lat(deg),Alt(km)}
Center cylindric: 0.0, 0.0, 0.0                   {E-lon(deg),Dxy(km),Dz(km)}
Center radii    : (undefined)
Small perturbers: Yes                             {source: SB441-N16}
Output units    : KM-S
Calendar mode   : Mixed Julian/Gregorian
Output type     : GEOMETRIC cartesian states
Output format   : 2 (position and velocity)
Reference frame : Ecliptic of J2000.0
*******************************************************************************
Initial IAU76/J2000 heliocentric ecliptic osculating elements (au, days, deg.):
  EPOCH=  2457344.5 ! 2015-Nov-18.00 (TDB)         Residual RMS= .34111        
   EC= .2424293626348207   QR= 2.07713901415567    TP= 2457249.9159786431      
   OM= .1657037554517837   W=  54.86395078838591   IN= 24.99012246822394       
  Equivalent ICRF heliocentric cartesian coordinates (au, au/d):
   X= 3.972037479333501E-02  Y= 1.425423109768523E+00  Z= 1.607075407856252E+00
  VX=-1.283312343753796E-02 VY= 1.107283817320098E-03 VZ= 1.272079870664399E-03
Asteroid physical parameters (km, seconds, rotational period in hours):        
   GM= n.a.                RAD= 65.4675            ROTPER= 12.093              
   H= 8.24                 G= .150                 B-V= .691                   
                           ALBEDO= .064            STYP= Xc                    
*******************************************************************************
JDTDB
   X     Y     Z
   VX    VY    VZ
*******************************************************************************
$$SOE
2460168.500000000 = A.D. 2023-Aug-12 00:00:00.0000 TDB 
 X = 2.194411758373165E+08 Y =-3.332900530334812E+08 Z =-1.550422916715552E+08
 VX= 1.215731174128147E+01 VY= 1.101089655132648E+01 VZ= 5.126296754632639E+00
$$EOE
*******************************************************************************
 
TIME

  Barycentric Dynamical Time ("TDB" or T_eph) output was requested. This
continuous coordinate time is equivalent to the relativistic proper time
of a clock at rest in a reference frame co-moving with the solar system
barycenter but outside the system's gravity well. It is the independent
variable in the solar system relativistic equations of motion.

  TDB runs at a uniform rate of one SI second per second and is independent
of irregularities in Earth's rotation.
 
CALENDAR SYSTEM

  Mixed calendar mode was active such that calendar dates after AD 1582-Oct-15
(if any) are in the modern Gregorian system. Dates prior to 1582-Oct-5 (if any)
are in the Julian calendar system, which is automatically extended for dates
prior to its adoption on 45-Jan-1 BC.  The Julian calendar is useful for
matching historical dates. The Gregorian calendar more accurately corresponds
to the Earth's orbital motion and seasons. A "Gregorian-only" calendar mode is
available if such physical events are the primary interest.

REFERENCE FRAME AND COORDINATES

  Ecliptic at the standard reference epoch

    Reference epoch: J2000.0
    X-Y plane: adopted Earth orbital plane at the reference epoch
               Note: IAU76 obliquity of 84381.448 arcseconds wrt ICRF X-Y plane
    X-axis   : ICRF
    Z-axis   : perpendicular to the X-Y plane in the directional (+ or -) sense
               of Earth's north pole at the reference epoch.

  Symbol meaning:

    JDTDB    Julian Day Number, Barycentric Dynamical Time
      X      X-component of position vector (km)
      Y      Y-component of position vector (km)
      Z      Z-component of position vector (km)
      VX     X-component of velocity vector (km/sec)                           
      VY     Y-component of velocity vector (km/sec)                           
      VZ     Z-component of velocity vector (km/sec)                           

ABERRATIONS AND CORRECTIONS

 Geometric state vectors have NO corrections or aberrations applied.

Computations by ...

    Solar System Dynamics Group, Horizons On-Line Ephemeris System
    4800 Oak Grove Drive, Jet Propulsion Laboratory
    Pasadena, CA  91109   USA

    General site: https://ssd.jpl.nasa.gov/
    Mailing list: https://ssd.jpl.nasa.gov/email_list.html
    System news : https://ssd.jpl.nasa.gov/horizons/news.html
    User Guide  : https://ssd.jpl.nasa.gov/horizons/manual.html
    Connect     : browser        https://ssd.jpl.nasa.gov/horizons/app.html#/x
                  API            https://ssd-api.jpl.nasa.gov/doc/horizons.html
                  command-line   telnet ssd.jpl.nasa.gov 6775
                  e-mail/batch   https://ssd.jpl.nasa.gov/ftp/ssd/hrzn_batch.txt
                  scripts        https://ssd.jpl.nasa.gov/ftp/ssd/SCRIPTS
    Author      : Jon.D.Giorgini@jpl.nasa.gov
*******************************************************************************
